{
    "links": {
        "self": "http://www.neowsapp.com/rest/v1/neo/54087428?api_key=iIulBulltgU6a56xZRHN4H3l9WmuAYTsLGpBGhQ2"
    },
    "id": "54087428",
    "neo_reference_id": "54087428",
    "name": "(2020 VS)",
    "designation": "2020 VS",
    "nasa_jpl_url": "http://ssd.jpl.nasa.gov/sbdb.cgi?sstr=54087428",
    "absolute_magnitude_h": 27.368,
    "estimated_diameter": {
        "kilometers": {
            "estimated_diameter_min": 0.0089321288,
            "estimated_diameter_max": 0.0199728472
        },
        "meters": {
            "estimated_diameter_min": 8.9321287938,
            "estimated_diameter_max": 19.9728471667
        },
        "miles": {
            "estimated_diameter_min": 0.0055501658,
            "estimated_diameter_max": 0.012410548
        },
        "feet": {
            "estimated_diameter_min": 29.3048854319,
            "estimated_diameter_max": 65.5277158985
        }
    },
    "is_potentially_hazardous_asteroid": false,
    "close_approach_data": [
        {
            "close_approach_date": "2020-11-05",
            "close_approach_date_full": "2020-Nov-05 16:40",
            "epoch_date_close_approach": 1604594400000,
            "relative_velocity": {
                "kilometers_per_second": "6.6641809546",
                "kilometers_per_hour": "23991.0514367052",
                "miles_per_hour": "14907.106377435"
            },
            "miss_distance": {
                "astronomical": "0.0162131299",
                "lunar": "6.3069075311",
                "kilometers": "2425449.699073313",
                "miles": "1507104.5576371994"
            },
            "orbiting_body": "Earth"
        }
    ],
    "orbital_data": {
        "orbit_id": "3",
        "orbit_determination_date": "2020-11-08 05:46:22",
        "first_observation_date": "2020-11-05",
        "last_observation_date": "2020-11-08",
        "data_arc_in_days": 3,
        "observations_used": 49,
        "orbit_uncertainty": "7",
        "minimum_orbit_intersection": ".0155584",
        "jupiter_tisserand_invariant": "3.803",
        "epoch_osculation": "2459000.5",
        "eccentricity": ".4743210884717478",
        "semi_major_axis": "1.897737235000149",
        "inclination": "3.582216635067472",
        "ascending_node_longitude": "218.3272865619236",
        "orbital_period": "954.8882408064361",
        "perihelion_distance": ".9976004440615136",
        "perihelion_argument": "198.5291186048001",
        "aphelion_distance": "2.797874025938785",
        "perihelion_time": "2459170.237672794198",
        "mean_anomaly": "296.0076293804755",
        "mean_motion": ".3770074702103018",
        "equinox": "J2000",
        "orbit_class": {
            "orbit_class_type": "APO",
            "orbit_class_description": "Near-Earth asteroid orbits which cross the Earth’s orbit similar to that of 1862 Apollo",
            "orbit_class_range": "a (semi-major axis) > 1.0 AU; q (perihelion) < 1.017 AU"
        }
    },
    "is_sentry_object": false
}